[Satellite]
VERSION=1.1
NAME=ORBCOMM FM38 [-]
NICKNAME=ORBCOMM FM38 [-]
TLE1=1 33060U 08031A   15054.19871854  .00001195  00000-0  21851-3 0  9998
TLE2=2 33060  48.4436  73.4607 0006571 202.8399 197.9554 14.72294970358867
